STARLINK-2587_new
1 18399C 21038AY  21326.16428313  .00015809  00000-0  10594-2 0  3267
2 18399  53.0541 183.0054 0001777  75.3830 230.8051 15.06376858    11
STARLINK-2587_old
1 28399C 21038AY  21325.12315009  .00005356  00000-0  35900-3 0  3253
2 28399  53.0542 187.6774 0001800  70.6250 346.3857 15.06376176    12
